PROXIMA II              
1 43696U 18088G   22076.17186740  .00007610  00000+0  30376-3 0  9999
2 43696  85.0351  14.4409 0020662  94.4300 265.9304 15.24774363185892
FACSAT-1                
1 43721U 18096C   22076.48129692  .00019143  00000+0  60917-3 0  9992
2 43721  97.3580 156.6363 0015469  26.7503  29.8291 15.32512818183873
CENTAURI-2              
1 43722U 18096D   22076.49946386  .00016343  00000+0  48695-3 0  9999
2 43722  97.3614 158.1956 0014570  23.0014 337.1878 15.34652867183952
INNOSAT-2               
1 43738U 18096V   22076.49355502  .00037460  00000+0  91301-3 0  9995
2 43738  97.3710 164.0365 0017043  15.0127  41.6442 15.40658842184311
SIRION PATHFINDER-2     
1 43759U 18099B   22076.14670890  .00001963  00000+0  18001-3 0  9998
2 43759  97.6309 145.3127 0013396 204.2009 155.8584 14.95961226179240
CORVUS BC4              
1 43767U 18099K   22076.13077296  .00002023  00000+0  18826-3 0  9990
2 43767  97.6267 143.9361 0010918 209.7132 150.3471 14.95362004179176
MOVE-II                 
1 43780U 18099Y   22075.72408613  .00003000  00000+0  26646-3 0  9995
2 43780  97.6335 145.3984 0012721 216.7962 143.2388 14.96835761179182
SPACEBEE-7              
1 43816U 18099BL  22075.70968232  .00002215  00000+0  19778-3 0  9996
2 43816  97.6356 146.0959 0012837 201.7707 158.2971 14.96884913178775
SPACEBEE-5              
1 43817U 18099BM  22076.15419059  .00007172  00000+0  59181-3 0  9994
2 43817  97.6502 148.8367 0012090 189.8750 170.2238 14.99247562178931
SPACEBEE-6              
1 43818U 18099BN  22076.45397283  .00003631  00000+0  31534-3 0  9990
2 43818  97.6385 147.5218 0013041 197.9601 162.1162 14.97577344179067
SHIELDS 1               
1 43850U 18104B   22076.33308413  .00002546  00000+0  10722-3 0  9997
2 43850  85.0255 113.3189 0012283 239.3846 120.6185 15.22769635180484
STF-1                   
1 43852U 18104D   22075.65695671  .00006507  00000+0  26198-3 0  9993
2 43852  85.0290 114.2822 0010998 256.3323 103.6696 15.24614782180391
ZACUBE-2                
1 43907U 18111AH  22076.51259322  .00005256  00000+0  20362-3 0  9994
2 43907  97.2045 326.1064 0022126  49.2455  73.4985 15.26348127179266
LUME 1                  
1 43908U 18111AJ  22075.99593129  .00007419  00000+0  26933-3 0  9995
2 43908  97.2051 326.7740 0020788  47.4754 312.8237 15.28387272179261
AOBA VELOX-IV           
1 43940U 19003J   22076.35175318  .00017943  00000+0  57905-3 0  9995
2 43940  97.1420 115.2224 0021714 115.0120 245.3381 15.31955839176006
MOVE-IIB                
1 44398U 19038N   22075.90410551  .00013069  00000+0  67542-3 0  9995
2 44398  97.6202  44.6356 0025068  89.0589 271.3515 15.16134717149008
SONATE                  
1 44400U 19038Q   22075.87066014  .00005210  00000+0  29159-3 0  9997
2 44400  97.6268  44.0939 0026074  91.2347 269.1871 15.13597493148921
LUCKY-7                 
1 44406U 19038W   22076.18225914  .00005322  00000+0  29231-3 0  9999
2 44406  97.6286  44.8099 0025378  89.5390 270.8749 15.14275475148990
BEESAT 9                
1 44412U 19038AC  22076.17717241  .00006833  00000+0  36619-3 0  9990
2 44412  97.6262  44.9664 0023266  93.5504 266.8389 15.15089008148717
JAISAT-1                
1 44419U 19038F   22076.45603970  .00006928  00000+0  36643-3 0  9993
2 44419  97.6266  46.0109 0022185  90.3138 270.0636 15.15573000149119
DUCHIFAT-3              
1 44854U 19089C   22076.31989826  .00003844  00000+0  30675-3 0  9997
2 44854  36.9666 286.2373 0007255 203.8523 323.6351 15.00316378124088
EYESAT-NANO             
1 44877U 19092E   22075.77644167  .00007434  00000+0  34499-3 0  9998
2 44877  97.4627 260.9425 0011612 324.5062  35.5400 15.20269253124276
ORBITAL FACTORY 2 (OF-2)
1 45113U 19071C   22076.20599506  .00017514  00000+0  43181-3 0  9992
2 45113  51.6403 151.5924 0009043 202.6513 157.4074 15.40597629119138
M2 PATHFINDER           
1 45727U 20037E   22076.39783203  .00001630  00000+0  16731-3 0  9999
2 45727  97.7269 253.5836 0012480 347.9287  12.1620 14.91719600 93107
NETSAT-4                
1 46504U 20068U   22075.77703086  .00004760  00000+0  35982-3 0  9995
2 46504  97.7126  15.8361 0011405 281.1912  78.8039 15.02791699 80127
NETSAT-3                
1 46505U 20068V   22075.78993823  .00003762  00000+0  28583-3 0  9997
2 46505  97.7140  15.7882 0011011 296.7779  63.2326 15.02740375 80130
NETSAT-1                
1 46506U 20068W   22075.80330617  .00002969  00000+0  22683-3 0  9990
2 46506  97.7152  15.7455 0008309 312.1351  47.9167 15.02707507 80137
NETSAT-2                
1 46507U 20068X   22075.81100729  .00003499  00000+0  26670-3 0  9990
2 46507  97.7153  15.7473 0007044 320.7322  39.3390 15.02690957 80084
SPOC                    
1 46921U 98067RR  22076.18317729  .00075577  00000+0  64644-3 0  9994
2 46921  51.6370  46.2162 0003638  79.6100 280.5306 15.68769848 77404
BOBCAT-1                
1 46922U 98067RS  22076.15745073  .00307290  00000+0  10991-2 0  9994
2 46922  51.6338  34.0166 0005525 113.2470 246.9117 15.87438659 77523
NEUTRON-1               
1 46923U 98067RT  22076.47507214  .00070932  00000+0  60993-3 0  9991
2 46923  51.6376  45.1742 0003877  84.0845 276.0593 15.68665777 77476
DESCENT                 
1 46927U 98067RX  22075.63552654  .00078593  00000+0  66210-3 0  9999
2 46927  51.6369  49.3147 0004453  85.5083 274.6422 15.69119812 77265
SAI-1 NANOCONNECT-2     
1 47701U 21015C   22076.18380009 -.00000072  00000+0  00000+0 0  9992
2 47701  97.4080 153.6783 0012001  40.4592 319.8832 15.24965456 58149
WARP-01                 
1 47924U 98067SA  22076.20662354  .00156377  00000+0  10444-2 0  9994
2 47924  51.6334  51.5672 0006643  79.6861 280.4887 15.74301766 57337
RSP-01                  
1 47925U 98067SB  22076.20171907  .00084133  00000+0  76241-3 0  9992
2 47925  51.6383  55.3498 0003328  67.2510 292.8838 15.67310391 57262
TAUSAT-1                
1 47926U 98067SC  22075.22612000  .00173202  00000+0  11594-2 0  9993
2 47926  51.6345  55.5430 0003770  66.6393 293.5002 15.74211811 57167
TSURU                   
1 47927U 98067SD  22076.14057404  .00066335  00000+0  65893-3 0  9997
2 47927  51.6374  57.1852 0002942  60.9276 299.2014 15.65122577 57237
STARS-EC                
1 47928U 98067SE  22075.97967067  .00214137  00000+0  11847-2 0  9997
2 47928  51.6338  51.5609 0007381  83.3080 276.8761 15.78392385 57274
MAYA-2                  
1 47929U 98067SF  22076.20113848  .00067940  00000+0  67576-3 0  9994
2 47929  51.6375  56.8385 0002776  59.9047 300.2223 15.65080121 57206
HIROGARI (OPUSAT-II)    
1 47930U 98067SG  22075.39722594  .00222379  00000+0  11615-2 0  9990
2 47930  51.6312  52.9201 0004871  86.4247 273.7312 15.79661547 57225
GUARANISAT-1            
1 47931U 98067SH  22076.19279107  .00067190  00000+0  66523-3 0  9994
2 47931  51.6385  56.7974 0002797  59.0450 301.0820 15.65200400 57245
SMOG-1                  
1 47964U 21022AJ  22076.15488168  .00004975  00000+0  32090-3 0  9996
2 47964  97.5393 338.4191 0020804  92.4319 267.9291 15.08566597 52969
MMSATS-1                
1 47976U 98067SJ  22076.27395423  .00018987  00000+0  28890-3 0  9997
2 47976  51.6431  66.2918 0002761  56.5984 303.5271 15.54551431 55904
BCCSAT-1                
1 48041U 21022AK  22075.96065091  .00004113  00000+0  27144-3 0  9995
2 48041  97.5400 337.9519 0017337  90.8336 269.4878 15.07875397 52891
RAMSAT                  
1 48850U 98067SL  22076.21884303  .00040511  00000+0  51954-3 0  9998
2 48850  51.6394  64.4343 0005646  74.3751 285.7864 15.58720939 42899
BD-28                   
1 48867U 98067SN  22076.20929792  .00044164  00000+0  54142-3 0  9997
2 48867  51.6372  63.6088 0004680  91.7186 268.4344 15.59877841 41652
MIR-SAT 1               
1 48868U 98067SP  22075.39419150  .00201497  00000+0  12528-2 0  9994
2 48868  51.6325  60.3842 0007126  84.3093 275.8719 15.75800172 41655
1998-067SR              
1 49272U 98067SR  22076.18463999  .00042110  00000+0  56798-3 0  9995
2 49272  51.6386  67.9377 0004496   5.2864 354.8175 15.57363005 25232
1998-067SS              
1 49273U 98067SS  22076.17707142  .00056802  00000+0  70699-3 0  9995
2 49273  51.6389  67.1397 0004329  12.3954 347.7144 15.59370795 25248
1998-067ST              
1 49274U 98067ST  22076.44041595  .00055559  00000+0  69441-3 0  9990
2 49274  51.6382  65.8977 0004150  13.3083 346.8018 15.59270820 25289
CUAVA-1                 
1 49275U 98067SU  22076.53321968  .00049347  00000+0  63482-3 0  9993
2 49275  51.6395  65.5735 0004702  20.0074  71.8644 15.58555327 25244
